[{"OBJECT_NAME":"STARLINK-4737","OBJECT_ID":"2022-114S","EPOCH":"2026-03-09T22:31:40.993824","MEAN_MOTION":15.08819822,"ECCENTRICITY":0.00012615,"INCLINATION":53.2179,"RA_OF_ASC_NODE":302.6732,"ARG_OF_PERICENTER":91.4079,"MEAN_ANOMALY":268.7058,"EPHEMERIS_TYPE":0,"CLASSIFICATION_TYPE":"U","NORAD_CAT_ID":53834,"ELEMENT_SET_NO":999,"REV_AT_EPOCH":19287,"BSTAR":0.00013137446,"MEAN_MOTION_DOT":1.802e-5,"MEAN_MOTION_DDOT":0},{"OBJECT_NAME":"FENGYUN 1C DEB","OBJECT_ID":"1999-025CCL","EPOCH":"2026-03-06T03:34:06.810816","MEAN_MOTION":14.54899177,"ECCENTRICITY":0.02544592,"INCLINATION":98.8002,"RA_OF_ASC_NODE":183.6648,"ARG_OF_PERICENTER":134.2479,"MEAN_ANOMALY":227.9915,"EPHEMERIS_TYPE":0,"CLASSIFICATION_TYPE":"U","NORAD_CAT_ID":31678,"ELEMENT_SET_NO":999,"REV_AT_EPOCH":98051,"BSTAR":0.0019572837,"MEAN_MOTION_DOT":0.00012976,"MEAN_MOTION_DDOT":0}]
